ALOS (DAICHI)           
1 28931U 06002A   23268.35317093  .00002916  00000+0  55891-3 0  9991
2 28931  97.9977 222.9516 0000705  63.8018 296.3258 14.64495479942427
